IRIDIUM 159             
1 43578U 18061K   25265.22535694  .00000422  00000+0  14366-3 0  9999
2 43578  86.4040 168.7031 0001984  83.7865 276.3557 14.34222746374976
IRIDIUM 180             
1 43922U 19002A   25265.08531238 -.00000001  00000+0 -73809-5 0  9996
2 43922  86.3922 105.6977 0001973  91.3700 268.7722 14.34217310350566
IRIDIUM 176             
1 43923U 19002B   25265.09435830  .00000450  00000+0  67391-4 0  9993
2 43923  86.6045 105.6766 0003012  90.5697 269.5866 14.72251009359803
IRIDIUM 168             
1 43924U 19002C   25265.07896965  .00000023  00000+0  10092-5 0  9995
2 43924  86.3925 105.7702 0002022  89.1819 270.9609 14.34217460350543
IRIDIUM 173             
1 43925U 19002D   25265.06628404 -.00000060  00000+0 -28412-4 0  9993
2 43925  86.3922 105.6754 0002095  92.0887 268.0549 14.34216843350528
IRIDIUM 169             
1 43926U 19002E   25265.18430461  .00000285  00000+0  86659-4 0  9995
2 43926  86.4241 137.2557 0003337  95.4347 264.7232 14.38609625351693
IRIDIUM 172             
1 43927U 19002F   25265.26924578  .00000060  00000+0  14320-4 0  9999
2 43927  86.3920 105.5976 0001925  93.0807 267.0609 14.34218045350563
IRIDIUM 175             
1 43928U 19002G   25265.15745330  .00001305  00000+0  20293-3 0  9993
2 43928  86.1484  52.6284 0002673  73.5041 286.6469 14.72247959359800
